{
  "type": "FeatureCollection",
  "name": "Cluster groupings",
  "features": [
    {
      "type": "Feature",
      "properties": {
        "name": "North East"
      },
      "geometry": {
        "type": "Polygon",
        "coordinates": [
          [
            [
              -113.6825909,
              53.5567278
            ],
            [
              -113.7795069,
              53.3580751
            ],
            [
              -113.8411667,
              53.1928606
            ],
            [
              -113.1348615,
              53.2206286
            ],
            [
              -112.9430114,
              52.9244934
            ],
            [
              -112.2668102,
              52.7924249
            ],
            [
              -110.4865134,
              52.2885726
            ],
            [
              -110.0184816,
              52.2951461
            ],
            [
              -110.0043299,
              53.7772688
            ],
            [
              -109.9812583,
              54.5529064
            ],
            [
              -111.3202193,
              54.7749954
            ],
            [
              -112.0721745,
              55.1322778
            ],
            [
              -110.5524742,
              57.2668238
            ],
            [
              -111.6511613,
              57.4975775
            ],
            [
              -112.6286739,
              55.3785287
            ],
            [
              -112.6228927,
              55.1599302
            ],
            [
              -113.0125555,
              54.3292125
            ],
            [
              -113.3286273,
              53.9220511
            ],
            [
              -113.518719,
              53.6571267
            ],
            [
              -113.6825909,
              53.5567278
            ]
          ]
        ]
      }
    },
    {
      "type": "Feature",
      "properties": {
        "name": "South"
      },
      "geometry": {
        "type": "Polygon",
        "coordinates": [
          [
            [
              -115.7015354,
              51.0520577
            ],
            [
              -114.7567112,
              50.9206547
            ],
            [
              -114.3333735,
              50.4060252
            ],
            [
              -113.7522234,
              50.2504642
            ],
            [
              -113.6965305,
              49.7993071
            ],
            [
              -114.4381077,
              49.6430469
            ],
            [
              -114.4655735,
              49.4505853
            ],
            [
              -113.7075169,
              49.3683806
            ],
            [
              -113.7075169,
              49.0885738
            ],
            [
              -112.9934055,
              49.1029614
            ],
            [
              -112.5814182,
              49.5362174
            ],
            [
              -110.6203587,
              49.8737087
            ],
            [
              -110.2193577,
              50.0115794
            ],
            [
              -112.438596,
              51.1348575
            ],
            [
              -112.30676,
              51.5022045
            ],
            [
              -110.2193577,
              51.2656541
            ],
            [
              -110.2138645,
              51.4269154
            ],
            [
              -111.6640598,
              51.7341315
            ],
            [
              -112.4611815,
              52.3852849
            ],
            [
              -113.0707092,
              52.3794214
            ],
            [
              -113.171289,
              52.4615214
            ],
            [
              -113.1614801,
              52.976425
            ],
            [
              -113.5005319,
              53.0863687
            ],
            [
              -114.1222766,
              52.6998141
            ],
            [
              -115.8031848,
              52.5631195
            ],
            [
              -115.8636096,
              52.4159475
            ],
            [
              -114.8082132,
              52.0257269
            ],
            [
              -114.6138889,
              51.3274808
            ],
            [
              -115.6685764,
              51.3583629
            ],
            [
              -115.7015354,
              51.0520577
            ]
          ]
        ]
      }
    },
    {
      "type": "Feature",
      "properties": {
        "name": "North West"
      },
      "geometry": {
        "type": "Polygon",
        "coordinates": [
          [
            [
              -113.4816603,
              54.9462315
            ],
            [
              -113.4157423,
              55.0690871
            ],
            [
              -113.5805373,
              55.1727481
            ],
            [
              -113.7892775,
              55.2823979
            ],
            [
              -114.1847853,
              55.3667785
            ],
            [
              -114.4978956,
              55.5878119
            ],
            [
              -114.8627128,
              55.6278265
            ],
            [
              -116.5138869,
              55.6932202
            ],
            [
              -117.0169708,
              56.2996644
            ],
            [
              -118.1462411,
              56.3362256
            ],
            [
              -120.0180761,
              56.3308426
            ],
            [
              -120.9297123,
              56.3337076
            ],
            [
              -121.0599395,
              55.0986856
            ],
            [
              -119.1406791,
              54.7376966
            ],
            [
              -119.3022197,
              53.8515194
            ],
            [
              -118.5907045,
              53.8281928
            ],
            [
              -118.1582332,
              54.9436372
            ],
            [
              -117.0874251,
              54.3285547
            ],
            [
              -115.3053908,
              53.9142049
            ],
            [
              -115.3548292,
              53.7488706
            ],
            [
              -117.6839308,
              53.5861441
            ],
            [
              -117.6399855,
              53.2785146
            ],
            [
              -115.7613234,
              53.4882064
            ],
            [
              -115.4042677,
              53.0710896
            ],
            [
              -114.6901564,
              53.0413755
            ],
            [
              -114.6846632,
              53.3933177
            ],
            [
              -113.9266066,
              53.3965933
            ],
            [
              -113.6825909,
              53.5567278
            ],
            [
              -113.518719,
              53.6571267
            ],
            [
              -113.003755,
              54.9178267
            ],
            [
              -113.4816603,
              54.9462315
            ]
          ]
        ]
      }
    }
  ]
}